[{"OBJECT_NAME":"TIGRISAT","OBJECT_ID":"2014-033AK","EPOCH":"2026-03-06T19:50:37.171968","MEAN_MOTION":14.84709959,"ECCENTRICITY":0.0050546,"INCLINATION":97.7668,"RA_OF_ASC_NODE":218.2985,"ARG_OF_PERICENTER":51.5856,"MEAN_ANOMALY":308.9881,"EPHEMERIS_TYPE":0,"CLASSIFICATION_TYPE":"U","NORAD_CAT_ID":40043,"ELEMENT_SET_NO":999,"REV_AT_EPOCH":63043,"BSTAR":0.00040489,"MEAN_MOTION_DOT":3.454e-5,"MEAN_MOTION_DDOT":0},{"OBJECT_NAME":"AEROCUBE 6A","OBJECT_ID":"2014-033AM","EPOCH":"2026-03-06T09:18:25.894944","MEAN_MOTION":14.96783313,"ECCENTRICITY":0.00391082,"INCLINATION":97.7117,"RA_OF_ASC_NODE":233.5749,"ARG_OF_PERICENTER":0.6051,"MEAN_ANOMALY":359.5211,"EPHEMERIS_TYPE":0,"CLASSIFICATION_TYPE":"U","NORAD_CAT_ID":40045,"ELEMENT_SET_NO":999,"REV_AT_EPOCH":63123,"BSTAR":0.00068541497,"MEAN_MOTION_DOT":7.91e-5,"MEAN_MOTION_DDOT":0},{"OBJECT_NAME":"AEROCUBE 6B","OBJECT_ID":"2014-033AN","EPOCH":"2026-03-06T10:05:57.925248","MEAN_MOTION":14.98173727,"ECCENTRICITY":0.00375546,"INCLINATION":97.7119,"RA_OF_ASC_NODE":233.1942,"ARG_OF_PERICENTER":353.5755,"MEAN_ANOMALY":6.4981,"EPHEMERIS_TYPE":0,"CLASSIFICATION_TYPE":"U","NORAD_CAT_ID":40046,"ELEMENT_SET_NO":999,"REV_AT_EPOCH":63136,"BSTAR":0.0007027748,"MEAN_MOTION_DOT":8.401e-5,"MEAN_MOTION_DDOT":0},{"OBJECT_NAME":"CANX-4","OBJECT_ID":"2014-034C","EPOCH":"2026-03-06T04:44:56.265216","MEAN_MOTION":14.81051341,"ECCENTRICITY":0.00125695,"INCLINATION":98.3282,"RA_OF_ASC_NODE":296.6514,"ARG_OF_PERICENTER":348.0358,"MEAN_ANOMALY":12.0553,"EPHEMERIS_TYPE":0,"CLASSIFICATION_TYPE":"U","NORAD_CAT_ID":40055,"ELEMENT_SET_NO":999,"REV_AT_EPOCH":62928,"BSTAR":0.00021242079,"MEAN_MOTION_DOT":1.592e-5,"MEAN_MOTION_DDOT":0},{"OBJECT_NAME":"CANX-5","OBJECT_ID":"2014-034D","EPOCH":"2026-03-06T04:44:22.766208","MEAN_MOTION":14.81068109,"ECCENTRICITY":0.00125706,"INCLINATION":98.3283,"RA_OF_ASC_NODE":296.6887,"ARG_OF_PERICENTER":348.188,"MEAN_ANOMALY":11.9035,"EPHEMERIS_TYPE":0,"CLASSIFICATION_TYPE":"U","NORAD_CAT_ID":40056,"ELEMENT_SET_NO":999,"REV_AT_EPOCH":62009,"BSTAR":0.00021397415,"MEAN_MOTION_DOT":1.605e-5,"MEAN_MOTION_DDOT":0},{"OBJECT_NAME":"UKUBE-1","OBJECT_ID":"2014-037F","EPOCH":"2026-03-05T21:51:27.491040","MEAN_MOTION":15.11691452,"ECCENTRICITY":0.00029116,"INCLINATION":98.4232,"RA_OF_ASC_NODE":57.4881,"ARG_OF_PERICENTER":114.9636,"MEAN_ANOMALY":245.1894,"EPHEMERIS_TYPE":0,"CLASSIFICATION_TYPE":"U","NORAD_CAT_ID":40074,"ELEMENT_SET_NO":999,"REV_AT_EPOCH":63294,"BSTAR":0.00069914698,"MEAN_MOTION_DOT":0.00011838,"MEAN_MOTION_DDOT":0},{"OBJECT_NAME":"BRITE-PL2 (HEWELIUSZ)","OBJECT_ID":"2014-049B","EPOCH":"2026-03-06T06:11:09.047040","MEAN_MOTION":14.94161298,"ECCENTRICITY":0.00156086,"INCLINATION":97.8984,"RA_OF_ASC_NODE":176.5682,"ARG_OF_PERICENTER":91.8548,"MEAN_ANOMALY":268.4459,"EPHEMERIS_TYPE":0,"CLASSIFICATION_TYPE":"U","NORAD_CAT_ID":40119,"ELEMENT_SET_NO":999,"REV_AT_EPOCH":62607,"BSTAR":0.0003643545,"MEAN_MOTION_DOT":3.85e-5,"MEAN_MOTION_DDOT":0},{"OBJECT_NAME":"AEROCUBE 5C","OBJECT_ID":"2015-058B","EPOCH":"2026-03-06T18:15:01.457856","MEAN_MOTION":14.90825487,"ECCENTRICITY":0.013085,"INCLINATION":64.7671,"RA_OF_ASC_NODE":221.0825,"ARG_OF_PERICENTER":103.6534,"MEAN_ANOMALY":257.9187,"EPHEMERIS_TYPE":0,"CLASSIFICATION_TYPE":"U","NORAD_CAT_ID":40965,"ELEMENT_SET_NO":999,"REV_AT_EPOCH":35038,"BSTAR":0.00049869,"MEAN_MOTION_DOT":5.628e-5,"MEAN_MOTION_DDOT":0},{"OBJECT_NAME":"AEROCUBE 7","OBJECT_ID":"2015-058C","EPOCH":"2026-03-06T18:34:17.495040","MEAN_MOTION":14.9485854,"ECCENTRICITY":0.0120774,"INCLINATION":64.7628,"RA_OF_ASC_NODE":205.3858,"ARG_OF_PERICENTER":102.7225,"MEAN_ANOMALY":258.7421,"EPHEMERIS_TYPE":0,"CLASSIFICATION_TYPE":"U","NORAD_CAT_ID":40966,"ELEMENT_SET_NO":999,"REV_AT_EPOCH":35064,"BSTAR":0.0006051,"MEAN_MOTION_DOT":7.48e-5,"MEAN_MOTION_DDOT":0},{"OBJECT_NAME":"FOX-1A (AO-85)","OBJECT_ID":"2015-058D","EPOCH":"2026-03-06T18:34:41.414016","MEAN_MOTION":14.90324942,"ECCENTRICITY":0.0129053,"INCLINATION":64.7742,"RA_OF_ASC_NODE":237.0932,"ARG_OF_PERICENTER":97.0911,"MEAN_ANOMALY":264.4896,"EPHEMERIS_TYPE":0,"CLASSIFICATION_TYPE":"U","NORAD_CAT_ID":40967,"ELEMENT_SET_NO":999,"REV_AT_EPOCH":9830,"BSTAR":0.0004841,"MEAN_MOTION_DOT":5.359e-5,"MEAN_MOTION_DDOT":0},{"OBJECT_NAME":"SINOD-D 1","OBJECT_ID":"2015-058E","EPOCH":"2026-03-06T19:55:41.262816","MEAN_MOTION":14.95012896,"ECCENTRICITY":0.0117374,"INCLINATION":64.7754,"RA_OF_ASC_NODE":219.2358,"ARG_OF_PERICENTER":94.3709,"MEAN_ANOMALY":267.0826,"EPHEMERIS_TYPE":0,"CLASSIFICATION_TYPE":"U","NORAD_CAT_ID":40968,"ELEMENT_SET_NO":999,"REV_AT_EPOCH":10135,"BSTAR":0.00061338,"MEAN_MOTION_DOT":7.555e-5,"MEAN_MOTION_DDOT":0},{"OBJECT_NAME":"SNAP-3 ALICE","OBJECT_ID":"2015-058G","EPOCH":"2026-03-06T11:09:24.672960","MEAN_MOTION":15.43185667,"ECCENTRICITY":0.00375213,"INCLINATION":64.7556,"RA_OF_ASC_NODE":94.2005,"ARG_OF_PERICENTER":69.8802,"MEAN_ANOMALY":290.6367,"EPHEMERIS_TYPE":0,"CLASSIFICATION_TYPE":"U","NORAD_CAT_ID":40970,"ELEMENT_SET_NO":999,"REV_AT_EPOCH":10095,"BSTAR":0.0013582825,"MEAN_MOTION_DOT":0.00062439,"MEAN_MOTION_DDOT":0},{"OBJECT_NAME":"LMRST-SAT","OBJECT_ID":"2015-058H","EPOCH":"2026-03-06T20:06:46.414080","MEAN_MOTION":14.89958892,"ECCENTRICITY":0.013115,"INCLINATION":64.775,"RA_OF_ASC_NODE":233.043,"ARG_OF_PERICENTER":99.007,"MEAN_ANOMALY":262.5911,"EPHEMERIS_TYPE":0,"CLASSIFICATION_TYPE":"U","NORAD_CAT_ID":40971,"ELEMENT_SET_NO":999,"REV_AT_EPOCH":9830,"BSTAR":0.00050009,"MEAN_MOTION_DOT":5.517e-5,"MEAN_MOTION_DDOT":0},{"OBJECT_NAME":"SNAP-3 EDDIE","OBJECT_ID":"2015-058J","EPOCH":"2026-03-06T18:54:02.921184","MEAN_MOTION":15.44212577,"ECCENTRICITY":0.0038673,"INCLINATION":64.7476,"RA_OF_ASC_NODE":84.5214,"ARG_OF_PERICENTER":74.71,"MEAN_ANOMALY":285.8308,"EPHEMERIS_TYPE":0,"CLASSIFICATION_TYPE":"U","NORAD_CAT_ID":40972,"ELEMENT_SET_NO":999,"REV_AT_EPOCH":10313,"BSTAR":0.0016382,"MEAN_MOTION_DOT":0.00078337,"MEAN_MOTION_DDOT":0},{"OBJECT_NAME":"PROPCUBE 3","OBJECT_ID":"2015-058K","EPOCH":"2026-03-06T20:27:54.920736","MEAN_MOTION":14.9349253,"ECCENTRICITY":0.012372,"INCLINATION":64.7689,"RA_OF_ASC_NODE":212.0806,"ARG_OF_PERICENTER":100.7833,"MEAN_ANOMALY":260.7235,"EPHEMERIS_TYPE":0,"CLASSIFICATION_TYPE":"U","NORAD_CAT_ID":40973,"ELEMENT_SET_NO":999,"REV_AT_EPOCH":9951,"BSTAR":0.00056759,"MEAN_MOTION_DOT":6.795e-5,"MEAN_MOTION_DDOT":0},{"OBJECT_NAME":"BISONSAT","OBJECT_ID":"2015-058L","EPOCH":"2026-03-06T15:38:49.124544","MEAN_MOTION":15.13702722,"ECCENTRICITY":0.00795186,"INCLINATION":64.7599,"RA_OF_ASC_NODE":144.5433,"ARG_OF_PERICENTER":92.0231,"MEAN_ANOMALY":269.0001,"EPHEMERIS_TYPE":0,"CLASSIFICATION_TYPE":"U","NORAD_CAT_ID":40974,"ELEMENT_SET_NO":999,"REV_AT_EPOCH":10008,"BSTAR":0.00074979064,"MEAN_MOTION_DOT":0.0001449,"MEAN_MOTION_DDOT":0},{"OBJECT_NAME":"SNAP-3 JIMI","OBJECT_ID":"2015-058M","EPOCH":"2026-03-06T07:12:48.310560","MEAN_MOTION":15.01074067,"ECCENTRICITY":0.01056891,"INCLINATION":64.7663,"RA_OF_ASC_NODE":185.0026,"ARG_OF_PERICENTER":97.8734,"MEAN_ANOMALY":263.4395,"EPHEMERIS_TYPE":0,"CLASSIFICATION_TYPE":"U","NORAD_CAT_ID":40975,"ELEMENT_SET_NO":999,"REV_AT_EPOCH":9877,"BSTAR":0.00060250348,"MEAN_MOTION_DOT":8.539e-5,"MEAN_MOTION_DDOT":0}]
